XCoord;YCoord;OBJECTID_1;NAME;ADDRESS;PHONE;EMAIL;WEBSITE;BRANCHADDRESS;COMMENT_;HOURS;COUNCIL_NAME
134.74969600;-29.01351200;1;Coober Pedy School Community Library;Paxton Rd, Coober Pedy  5723;8672 4634;library@cooberpedy.sa.edu.au;http://www.cooberpedy.sa.gov.au/site/page.cfm?u=123;NULL;NULL;School terms: Mon - Fri 8.30am - 6pm, Sun 11am - 4pm School holidays: Mon - Fri 12 noon - 6pm, Sun 11am - 4pm;The Dc Of Coober Pedy
136.89655300;-30.56192600;2;Roxby Downs Community Library;Richardson Place, Roxby Downs  5725;8671 0660;roxbydowns.library@plain.sa.gov.au;NULL;NULL;NULL;School term: Mon - Fri 8.30am - 5pm, Sat 9.30am - 12 noon, School holidays: Mon - Fri 9am - 5pm, Sat 9.30am - 12 noon, After hours returns available;Municipal Council Of Roxby Downs
138.42520800;-31.88834500;3;Hawker School Community Library;Arkaba St, Hawker  5434;8648 4184;hawker.library@plain.sa.gov.au;http://www.libraries.sa.gov.au;NULL;NULL;School terms: Mon 8.30am - 5.00pm, Tues, Thurs 10.30am - 5pm, Wed, Fri 8.30am - 4.30pm, School holidays: Mon, Tues, 10.30am - 5pm, Wed, Thurs 1pm - 5pm, Fri CLOSED;The Flinders Ranges Council
138.03235100;-32.34947700;4;Quorn School Community Library;West Tce, Quorn  5433;8648 6705;quorn.library@plain.sa.gov.au;http://www.libraries.sa.gov.au;NULL;NULL;School terms: Mon 8.30am - 4pm, Tues, Fri 8.30am - 6pm, Wed, Thurs 8.30am - 5pm, Sat 10am - 12 noon, School holidays: Tues 10am - 12 noon, 1pm - 6pm, Wed, Thurs 1pm - 5pm, Fri 1pm - 6pm, Sat 10am - 12 noon;The Flinders Ranges Council
133.67306600;-32.13771900;5;Ceduna School Community Library;May Cres, Ceduna  5690;8625 3270;ceduna.library@plain.sa.gov.au;http://www.cedunaas.sa.edu.au/library.htm;NULL;NULL;School terms: Mon, Wed, Fri 8.30am - 4pm, Tues 8.30am - 5.30pm, Thurs 8.30am - 4pm, 7pm - 9pm, Sat 9am - 11am School holidays: Mon, Wed, Thurs 9am - 4pm, Tues 9am - 5.30pm, Sat 9am - 11am Closed for lunch 12.30pm-1.30pm;The Dc Of Ceduna
138.61224900;-32.73047800;6;Orroroo School Community Library;West Tce, Orroroo  5431;8658 1100;rosenblatt.jenny@plain.sa.gov.au;http://www.libraries.sa.gov.au;NULL;NULL;Schol terms: Mon 8.45am - 4pm, Tues, Wed, Fri 8.45am - 5pm, Thurs 8.45am - 7pm School holidays: Tues 11am - 5pm, Wed 1pm - 5pm, Thurs 1pm - 7pm, Fri 10.30am - 5pm;The Dc Of Orroroo Carrieton
134.20660200;-32.79731200;7;Streaky Bay School Community Library;109 Wells St, Streaky Bay  5680;8626 1492;longbottom.lorraine@plain.sa.gov.au;http://www.libraries.sa.gov.au;NULL;NULL;School terms: Mon, Wed, Fri 8.30am - 4pm, Tues, Thurs 8.30am - 6.30pmSchool holidays: Mon, Wed 9am - 12 noon, 1pm - 4pm, Tues 12 noon - 6.30pm, Thurs 4pm - 6.30pm, Fri 12 noon - 4pm;The Dc Of Streaky Bay
138.42797000;-33.05117300;8;Flinders Mobile Library;Booleroo Jamestown Rd, Appila  5480;8673 2305;flindersmobile.library@plain.sa.gov.au;http://www.flindersmobile.sa.gov.au;NULL;NULL;NULL;The Dc Of Mount Remarkable
138.35035800;-32.88169600;9;Flinders Mobile Library;Stephens St, Booleroo Centre  5482;8665 2305;flindersmobile.library@plain.sa.gov.au;http://www.flindersmobile.sa.gov.au;NULL;NULL;NULL;The Dc Of Mount Remarkable
138.18790200;-32.82473400;10;Flinders Mobile Library;Main North Rd, Melrose   5483;8666 2305;flindersmobile.library@plain.sa.gov.au;http://www.flindersmobile.sa.gov.au;NULL;NULL;NULL;The Dc Of Mount Remarkable
138.24040900;-32.93609500;11;Flinders Mobile Library;Main North Rd, Murray Town  5481;8672 2305;flindersmobile.library@plain.sa.gov.au;http://www.flindersmobile.sa.gov.au;NULL;NULL;NULL;The Dc Of Mount Remarkable
137.99860200;-33.02244600;12;Flinders Mobile Library;Esplanade, Port Germein   5495;8663 2305;flindersmobile.library@plain.sa.gov.au;http://www.flindersmobile.sa.gov.au;NULL;NULL;NULL;The Dc Of Mount Remarkable
138.09958200;-32.65251000;13;Flinders Mobile Library;Main North Rd, Wilmington   5485;8667 2305;flindersmobile.library@plain.sa.gov.au;http://www.flindersmobile.sa.gov.au;NULL;NULL;NULL;The Dc Of Mount Remarkable
138.26817500;-33.03295200;14;Flinders Mobile Library;Hillside Rd, Wirrabara   5481;8671 2305;flindersmobile.library@plain.sa.gov.au;http://www.flindersmobile.sa.gov.au;NULL;NULL;NULL;The Dc Of Mount Remarkable
137.76413900;-32.49088200;15;Port Augusta Public Library;4 Mackay St, Port Augusta  5700;8641 9151;palibrary@portaugusta.sa.gov.au;http://www.portaugusta.sa.gov.au;NULL;NULL;Mon, Wed, Fri 9am - 6pm, Tues, Thurs 9am - 8pm, Sat 10am - 1pm, Sun 2pm - 5pmAfter hours returns available;Port Augusta City Council
138.83629900;-32.97810400;16;Peterborough Community Library;Queen St, Peterborough  5422;8651 2523;malycha.chris@plain.sa.gov.au;http://www.libraries.sa.gov.au;NULL;NULL;Mon - Fri 9am - 4pm, Sat 9am - 12 noon;The Dc Of Peterborough
135.15548900;-32.85602000;17;Karcultaby School Community Library;Phillips Rd, Karcultaby  5654;8626 3077;library@karcultas.sa.edu.au;http://www.karcultas.sa.edu.au/library.htm;NULL;NULL;Mon 9am - 6pm, Tues - Fri 9am - 3.30pm;Wudinna District Council
135.46176900;-33.04526100;18;Wudinna School Community Library;30 Medley Tce, Wudinna  5652;8680 2194;library@wudinnaas.sa.edu.au;http://www.wudinnaas.sa.edu.au/Library;NULL;NULL;School terms: Mon 9am - 4pm, Tues, Thurs 9am - 5pm, Wed 9am - 6pm , Fri 9am - 4pm, School holidays: Tues 9am - 1pm, Wed 10am - 12 noon, 1pm - 6pm, Thurs 12 noon - 5pm, Fri 9am - 1pm;Wudinna District Council
136.41940400;-33.13553600;19;Kimba School Community Library;69 West Tce, Kimba  5641;8627 2221;francis.therese@plain.sa.gov.au;http://www.libraries.sa.gov.au;NULL;NULL;School terms: Mon 9am - 3.30pm, Tues - Fri 9am - 5pm, School holidays: Tues - Fri 10.15am - 12.30pm, 1pm - 4.30pm;The Dc Of Kimba
137.52369800;-33.02656900;20;Whyalla Library Service;Ekblom St, Whyalla Norrie   5608;8645 7891;library@whyalla.sa.gov.au;http://www.whyalla.sa.gov.au;NULL;NULL;Mon - Wed 10am - 5pm Thurs 10am - 7pm Fri 10am - 5pm Sat 9am - 1pm Sun 1pm - 5pm ;The Corporation Of The City Of Whyalla
138.35540000;-33.26780000;21;Flinders Mobile Library;14 Fifth St, Gladstone  5473;8662 2305;flindersmobile.library@plain.sa.gov.au;http://www.flindersmobile.sa.gov.au;NULL;NULL;NULL;Northern Areas Council
138.39258700;-33.35996100;22;Flinders Mobile Library;Main North Rd, Georgetown   5472;8668 2305;flindersmobile.library@plain.sa.gov.au;http://www.flindersmobile.sa.gov.au;NULL;NULL;NULL;Northern Areas Council
138.44327000;-33.46653300;23;Flinders Mobile Library;Railway Tce, Gulnare  5471;8669 2305;flindersmobile.library@plain.sa.gov.au;http://www.flindersmobile.sa.gov.au;NULL;NULL;NULL;Northern Areas Council
138.30046900;-33.18579900;24;Flinders Mobile Library;Civic Centre , Hughes St, Laura  5480;8662 2305;flindersmobile.library@plain.sa.gov.au;http://www.flindersmobile.sa.gov.au;NULL;NULL;NULL;Northern Areas Council
138.60718000;-33.49929300;25;Flinders Mobile Library;Town Hall, Main North Rd, Spalding   5454;8670 2305;flindersmobile.library@plain.sa.gov.au;http://www.flindersmobile.sa.gov.au;NULL;NULL;NULL;Northern Areas Council
138.44449300;-33.57080100;26;Flinders Mobile Library;Main North Rd, Yacka  5470;8676 2305;flindersmobile.library@plain.sa.gov.au;http://www.flindersmobile.sa.gov.au;NULL;NULL;NULL;Northern Areas Council
138.61026100;-33.20436100;27;Jamestown School Community Library;Humphris Tce, Jamestown  5491;8664 2713;NULL;http://www.jamestnr12.sa.edu.au/Library.htm;NULL;NULL;School terms: Mon - Wed, Fri 9am - 5pm, Thurs 9am - 6pm (7pm daylight saving), School holidays: Tues, Wed, Fri 9am - 5pm, Thurs 10am - 6pm (11am - 7pm daylight saving), Closed for lunch 1pm - 1.30pm;Northern Areas Council
138.93869000;-33.68027700;28;Burra School Community Library;7 Bridge Tce, Burra  5417;8892 2038;burra.library@plain.sa.gov.au;http://www.libraries.sa.gov.au;NULL;Provides library services at:, Booborowie - next to Willis' office Mon - Fri 9am - 5pm, Hallett - Tues, Thurs 1.30pm - 4.30pm, Terowie - Tues 10am - 12 noon, Thurs 5pm - 6pm;School terms: Mon - Fri 8.30am - 6pm, School holidays: Mon - Fri 11am - 1pm, 2pm - 6pm, After hours returns available;The Regional Council Of Goyder
139.09244800;-34.18109800;29;Eudunda Robertstown School Community Library;2 Reserve Rd, Eudunda  5374;8581 1587;sandy.smith@plain.sa.gov.au;http://www.libraries.sa.gov.au;Robertstown Link Library - [address 7 Commercial St, Robertstown 5381] Tel. 8581 7069 Fax 8581 7098;NULL;NULL;The Regional Council Of Goyder
139.07958500;-33.98987400;30;Robertstown Link Library;7 Commercial St, Robertstown SA 5381;(08) 8581 7209;pmatthew@eudundaas.sa.edu.au;http://www.goyder.sa.gov.au/site/page.cfm?u=100&c=473;NULL;NULL;NULL;The Regional Council Of Goyder
138.20731900;-33.35180400;31;Crystal Brook Public Library;Bowman St, Crystal Brook  5523;8636 2150;library@pirie.sa.gov.au;http://www.pirie.sa.gov.au;NULL;NULL;Tues 9am - 12 noon, Wed, Fri 12 noon - 5pm;Port Pirie Regional Council
138.33313000;-33.58722800;32;Flinders Mobile Library;Town Hall, Sixth St, Koolunga   5464;8675 2305;flindersmobile.library@plain.sa.gov.au;http://www.flindersmobile.sa.gov.au;NULL;NULL;NULL;Port Pirie Regional Council
138.11355100;-33.15280500;33;Flinders Mobile Library;Oak St, Napperby   5540;8664 2305;flindersmobile.library@plain.sa.gov.au;http://www.flindersmobile.sa.gov.au;NULL;NULL;NULL;Port Pirie Regional Council
138.22232000;-33.53749600;34;Flinders Mobile Library;Ellis St, Redhill  5521;8674 2305;flindersmobile.library@plain.sa.gov.au;http://www.flindersmobile.sa.gov.au;NULL;NULL;NULL;Port Pirie Regional Council
138.01013700;-33.17654900;35;Port Pirie Public Library;3 Wandearah Rd, Port Pirie  5540;8632 1649;library@pirie.sa.gov.au;http://www.pirie.sa.gov.au;NULL;NULL;Mon - Fri 9am - 6pm, Sat 9am - 1pm, Sun 1pm - 5pm;Port Pirie Regional Council
135.75460100;-33.56786900;36;Lock School Community Library;West Tce, Lock  5633;8689 1015;NULL;http://www.lockas.sa.edu.au;Depots at: Elliston Community Information Centre, tel. 8687 9200 Port Kenny School, tel. 8625 5020 - for Port Kenny and Venus Bay residents;Free tea and coffee available in the Community Corner ;School terms: Mon, Wed 8.30am - 4pm, Tues 8.30am - 6pm, Thurs 8.30am - 4pm, 6pm - 9pm, Fri 8.30am - 5pm School holidays: Tues, Thurs 10am - 7pm, Fri 10am - 5pm;The Dc Of Elliston
136.91860000;-33.68435500;37;Cowell School Community Library;42 Story Rd, Cowell  5602;8629 2320;cowell.library@plain.sa.gov.au;http://www.cowellas.sa.edu.au;NULL;NULL;School terms: Mon 9am - 4pm, Tues - Thurs 9am - 5pm, Fri 9am - 4pm School holidays: Tues - Thurs 11am - 5pm, Fri 11am - 4pm;The Dc Of Franklin Harbour
136.49408800;-33.70037300;38;Cleve School Community Library;Second St, Cleve  5640;8628 2104;honan.margaret@plain.sa.gov.au;http://www.libraries.sa.gov.au;NULL;NULL;School terms:, Mon 9am -12.5pm, 1.35pm - 3.10pm, Wed, Fri 9am - 5pm, Tues, Thurs 9am - 7pm, School holidays:, Tues, Thurs 11am - 2pm, 3pm - 7pm, Wed 10am - 1pm, 2pm - 5pm, Fri 9am - 1pm, 2pm - 5pm;The Dc Of Cleve
137.93384200;-33.59766500;39;Port Broughton School Community Library;12 East Tce, Port Broughton  5522;8635 2863;lyn.brown@pbas.sa.edu.au;http://www.barungawest.sa.gov.au;Bute - Bute Council Office, 15 Railway Tce, Bute 5560 Tel.  8826 2011 Fax  8826 2173;NULL;Mon 8.30am - 5pm. Closed for lunch 12.45pm - 1.45pm;The Dc Of Barunga West
138.41484600;-34.14960500;40;Balaklava Community Library;May Tce, Balaklava  5461;8862 1336;admin.bcl@balakhs.sa.edu.au;http://www.balakhs.sa.edu.au;NULL;NULL;Mon - Fri 9am - 5pm, Thurs 9am - 9pm, Sat 9am - 12 noon;Wakefield Regional Council
138.22343100;-33.78549200;41;Snowtown School Community Library;Glen Davidson Dr, Snowtown  5520;8865 2006;admin@snowtownas.sa.edu.au;http://www.snowtownas.sa.edu.au/library;NULL;NULL;School terms: Mon 9am - 4pm, Tues - Fri 9am - 4.30pm, Sat 9am - 12 noon School holidays: Tues - Fri 9.30am - 3.45pm, Sat 9.30am - 12 noon;Wakefield Regional Council
138.68090500;-34.35662900;42;Hamley Bridge Library;Gilbert Street Hamley Bridge 54601;8528 2070; ;NULL;<Null>;NULL;NULL;Wakefield Regional Council
138.49032500;-33.84474700;43;Blyth Community Library;August & Wakefied Street Blyth 5462;8844 5195;info@blythps.sa.edu.au;NULL;NULL;NULL;NULL;Wakefield Regional Council
138.40431300;-33.68860400;44;Brinkworth Community Library;Belling Street Brinkworth 5464;8846 2132;info@brinkwthps.sa.edu.au;NULL;NULL;NULL;NULL;Wakefield Regional Council
138.61313500;-33.83328000;45;Clare Library;33 Old North Rd, Clare  5453;8842 3817;clare.library@plain.sa.gov.au;http://www.claregilbertvalleys.sa.gov.au;Auburn - 6 St Vincent Street, Auburn 5451 Hours: Tues 3pm-4.30pm, Wed 11am-12 noon, Thurs 7pm-8pm, Fri 3pm-4.30pm Manoora - Manoora Institute Building, Manoora 5414 Hours: Fri 6pm-7.30pm Watervale - Main North Rd, Watervale 5452 Hours: Sat 9.30am-10.30am;NULL;Tues, Wed, Fri 10am - 6pm, Thurs 10am - 8pm, Sat 10am - 12 noon, Sun, 10am - 1pm;Clare And Gilbert Valleys Council
138.75061900;-34.15621200;46;Riverton Community Library;Oxford Tce, Riverton  5412;8847 2414;NULL;http://www.claregilbertvalleys.sa.gov.au;NULL;NULL;School terms: Tues 3pm - 6pm, Wed - Fri 10am - 6pm (closed for lunch 12.50pm - 1.40pm), Sat 10am - 12 noon School holidays: Tues - Fri 10am - 6pm (closed for lunch 1.30pm - 2pm);Clare And Gilbert Valleys Council
138.78285000;-34.08480300;47;Saddleworth Library & Community Centre;19 Belvidere Rd, Saddleworth  5413;8847 4096;saddleworth.library@plain.sa.gov.au;http://www.claregilbertvalleys.sa.gov.au;NULL;Incorporates the Saddleworth Rural Transaction Centre;Tues - Fri 8.30am - 12pm, 1pm - 5pm, Sat 9.30 - 12pm;Clare And Gilbert Valleys Council
138.64510100;-33.95882800;48;Watervale Library;Lot 293, Main North Road, Watervale;08 88474096;saddleworth.library@plain.sa.gov.au;http://www.claregilbertvalleys.sa.gov.au/site/page.cfm?u=171;<Null>;NULL;Hours: Sat 9.30am-10.30am;Clare And Gilbert Valleys Council
138.81742400;-33.99995700;49;Manoora Library;Manoora Institute Building, Barrier Highway, Manoora;08 88474096;saddleworth.library@plain.sa.gov.au;http://www.claregilbertvalleys.sa.gov.au/site/page.cfm?u=171;<Null>;NULL;Hours: Fri 6pm-7.30pm;Clare And Gilbert Valleys Council
138.68463900;-34.02645500;50;Auburn Library;6 St Vincent St, Auburn;08 88492414;saddleworth.library@plain.sa.gov.au;http://www.claregilbertvalleys.sa.gov.au/site/page.cfm?u=171;<Null>;NULL;Hours: Tues 3pm-4.30pm, Wed 11am-12 noon, Thurs 7pm-8pm, Fri 3pm-4.30pm;Clare And Gilbert Valleys Council
137.71619600;-33.96030400;51;Kadina Community Library;1a Doswell Tce, Kadina  5554;8821 0444;kadina.library@plain.sa.gov.au;http://www.coppercoast.sa.gov.au;NULL;NULL;Mon - Wed, Fri 9am - 5.30pm, Thurs 9am - 8pm, Sat 9am - 12 noon Toy library: Thurs 5pm - 8pm, Fri 9am - 5.30pm, Sat 9am - 11.30am;Dc Of The Copper Coast
137.59248500;-34.06923000;52;Moonta Community Library;Blanche Tce, Moonta  5558;8825 1511;mlibrary@moontaas.sa.edu.au;http://www.coppercoast.sa.gov.au;NULL;NULL;Tues, Wed, Fri 9am - 4pm, Thurs 9am - 6pm, Sun 1.30pm - 4pm;Dc Of The Copper Coast
137.62524200;-33.93112500;53;Wallaroo Library;John St, Wallaroo  5556;8823 2924;NULL;http://www.coppercoast.sa.gov.au;NULL;NULL;Tues - Fri 9am - 5pm;Dc Of The Copper Coast
139.28090000;-34.65681200;54;Cambrai School Community Library;1 Main St, Cambrai  5353;8564 5146;library@cambraias.sa.edu.au;http://www.libraries.sa.gov.au;NULL;NULL;School term: Mon, Wed, Fri 9am - 3.30pm, Tues 9am - 3.30pm, 6.30pm - 8.30pm, Thurs 9am - 4.30pm School holidays: Tues 4.30pm - 8.30pm, Wed - Fri 9.30am - 4pm (closed 1pm - 1.30pm);Mid Murray Council
139.30468200;-34.91271800;55;Mannum School Community Library;Walker Ave, Mannum  5238;8569 2005;library@mcc.sa.edu.au;http://www.mcc.sa.edu.au;NULL;NULL;School terms: Mon, Thurs, Fri 9am - 4pm, Tues 9am - 3.30pm, Wed 9am - 8pm, Sat 9.30am - 12 noon, School holidays: Mon - Fri 10am - 2pm, Wed 10am - 2pm, 4pm - 8pm, Sat 10am - 12 noon;Mid Murray Council
139.66874000;-34.03289800;56;Morgan Public Library;Ninth St, Morgan  5320;8540 2290;morlib@mid-murray.sa.gov.au;http://www.loxtonwaikerie.sa.gov.au;NULL;NULL;Mon 2.30pm - 5.30pm, Wed 1pm - 5pm, Fri 9am - 12 noon;Mid Murray Council
139.60192600;-34.57253100;57;Swan Reach School Community Library;Showground Rd, Swan Reach  5354;8570 2053;NULL;http://www.swanrchas.sa.edu.au;NULL;NULL;School terms: Mon, Thurs, Fri 9am - 4pm, Tues, Wed 9am - 5pm School holidays: Mon, Tues, Thurs, Fri 11am - 4pm;Mid Murray Council
136.10048300;-34.37649600;58;Tumby Bay School Community Library;28 West Tce, Tumby Bay  5605;8688 2471;NULL;http://www.libraries.sa.gov.au;NULL;NULL;School terms: Mon, Thurs 9am - 4pm, Tues 9am - 4pm, 7pm - 8pm, Wed, Fri 9am - 6pm, Sat 10am - 12 noon, School holidays: Tues 10am - 3.30pm, 7pm - 8pm, Wed 10am - 5.30pm, Thurs, Fri 9am - 4pm, Sat 10am - 12 noon;The Dc Of Tumby Bay
135.72353700;-34.26444900;59;Cummins School Community Library;McFarlane St, Cummins  5631;8676 2476;cummins.library@plain.sa.gov.au;http://www.cumminsas.sa.edu.au;NULL;NULL;School terms: Mon 9am - 4pm, Tues, Thurs 9am - 6pm, Wed, Fri 9am - 5pm, Sat 10am - 12 noon School holidays: Tues, Thurs 9am - 1.30pm, 2.30pm - 6pm, Wed 12.30pm - 5pm, Fri 9am - 1.30pm, 2.30pm - 5pm, Sat 10am - 12 noon Coffin Bay depot: Sat 10am - 12 noon;The Dc Of Lower Eyre Peninsula
140.56916100;-34.45006200;60;Loxton Public Library;East Tce, Loxton  5333;8584 8051;libmanagerlox@loxtonwaikerie.sa.gov.au;http://www.loxtonwaikerie.sa.gov.au;NULL;NULL;Tues, Wed 10am - 6pm, Thurs 10am - 8pm, Fri 10am - 5pm, Sat 9am - 12 noon;The Dc Of Loxton Waikerie
139.98599900;-34.18656500;61;Waikerie Public Library;Strangman Rd, Waikerie  5330;8541 0720;libmanagerwaik@loxtonwaikerie.sa.gov.au;http://www.loxtonwaikerie.sa.gov.au;NULL;NULL;Tues, Thurs 10.30am - 8pm, Wed, Fri 10.30am - 6pm, Sat 9.30am - 12 noon;The Dc Of Loxton Waikerie
140.75186100;-34.16764900;62;Renmark Paringa Public Library;James Ave, Renmark  5341;8586 5544;lc24mah@plain.sa.gov.au;http://www.renmarkparinga.sa.gov.au;NULL;NULL;Mon closed, Tues, Thurs, Fri 9.30am - 5.30pm, Wed 9.30am - 8pm, Sat 9.30am - 12 noon;Renmark Paringa Council
137.91624200;-34.42385400;63;Ardrossan School Community Library;14 Second St, Ardrossan  5571;8837 4134;NULL;http://www.libraries.sa.gov.au;NULL;NULL;School terms: Mon, Tues, Thurs 9am - 3.30pm, Wed, Fri 9am - 6pm, Sat 10am - 1pm School holidays: Tues, Thurs 9am - 12.30pm, 1pm - 3.30pm, Wed, Fri 10.30am - 1pm, 2pm - 6pm, Sat 10am - 1pm;The Dc Of Yorke Peninsula
137.67389500;-34.36820000;64;Maitland School Community Library;Junction Rd, Maitland  5573;8832 2805;NULL;http://www.libraries.sa.gov.au;NULL;NULL;School terms: Mon, Wed, Fri 8.30am - 4.30pm, Tues, Thurs 8.30am - 7pm School holidays: Mon, Wed, Fri 10am - 2pm, Tues Thurs 3pm - 7pm;The Dc Of Yorke Peninsula
137.59333200;-34.76594300;65;Minlaton School Community Library;2 North Tce, Minlaton  5575;8853 2339;NULL;http://www.minlatonds.sa.edu.au/library;Curramulka Depot in the Curramulka Institute Port Vincent Depot in the Port Vincent Institute;NULL;School terms: Mon, Wed, Fri 8.30am - 4.30pm, Tues, Thurs 8.30am - 3.30pm, 5pm - 7pm, School holidays: Tues, Thurs 10am - 12.30pm, 1.30pm - 4pm, 5pm - 7pm, Wed, Fri 10am - 12.30pm, 1.30pm - 4pm;The Dc Of Yorke Peninsula
137.61535000;-35.01700300;66;Yorketown Area School Community Library;Stansbury Rd, Yorketown  5576;8852 1647;NULL;http://www.libraries.sa.gov.au;NULL;NULL;School terms: Mon, Wed, Fri 8.45am - 5pm, Tues, Thurs 8.45am - 5pm, 6.30 - 8.30pm School holidays: Mon 2pm - 5pm, Tues 2pm - 5pm, 6.30 - 8.30pm, Wed 10.30pm - 1pm, 2pm - 5pm, Thurs 10.30pm - 1pm, 2pm - 5pm, 6.30 - 8.30pm, Fri 10.30pm - 1pm, 2pm - 5pm;The Dc Of Yorke Peninsula
137.40196900;-34.99056300;67;Warooka Library Depot;Player St, Warooka SA;NULL; ;http://www.yorke.sa.gov.au/content/view/160/253/;NULL;NULL;NULL;The Dc Of Yorke Peninsula
137.79687900;-34.91078200;68;Stansbury Library Depot;Stansbury Institute, Weaver St, Stansbury SA;NULL; ;http://www.yorke.sa.gov.au/content/view/159/253/;NULL;NULL;NULL;The Dc Of Yorke Peninsula
137.86206500;-34.77790300;69;Port Vincent Library Depot;19 Marine Parade, Port Vincent, SA;NULL; ;http://www.yorke.sa.gov.au/content/view/158/253/;NULL;NULL;NULL;The Dc Of Yorke Peninsula
137.75675500;-34.25947500;70;Arthurton Library Depot;Main St, Arthurton SA;NULL; ;http://www.yorke.sa.gov.au/content/view/462/253/;NULL;NULL;NULL;The Dc Of Yorke Peninsula
137.48451100;-34.49749800;71;Port Victoria Library Depot;Main St, Port Victoria SA;NULL; ;http://www.yorke.sa.gov.au/content/view/157/253/;NULL;NULL;NULL;The Dc Of Yorke Peninsula
136.98073800;-35.23769900;72;Marion Bay Library Depot;Slow St, Marion Bay SA;NULL; ;http://www.yorke.sa.gov.au/content/view/155/253/;NULL;NULL;NULL;The Dc Of Yorke Peninsula
137.74552200;-35.08593400;73;Edithburgh Library Depot;30 Blanche St, Edithburgh, SA;NULL; ;http://www.yorke.sa.gov.au/content/view/153/253/;NULL;NULL;NULL;The Dc Of Yorke Peninsula
137.71159900;-34.69718500;74;Carramulka Library Depot;6 High St, Curramulka, SA;NULL; ;http://www.yorke.sa.gov.au/content/view/152/253/;NULL;NULL;NULL;The Dc Of Yorke Peninsula
137.08335500;-34.92608300;75;Corny Point Library Depot;Cnr Liddiards and Rockleigh Rd, Corny Point, SA;NULL; ;http://www.yorke.sa.gov.au/content/view/151/253/;NULL;NULL;NULL;The Dc Of Yorke Peninsula
140.46445600;-34.25207200;76;Barmera Public Library;4c Barwell Ave, Barmera  5345;8588 2872;bbc@berribarmera.sa.gov.au;http://www.berribarmera.sa.gov.au;NULL;NULL;Mon 9.30am - 1pm, Tues, Wed, Fri 9.30am - 5.30pm, Thurs 9.30am - 6pm, Sat 9am - 12 noon, After hours returns available;The Berri Barmera Council
140.60817400;-34.27967000;77;Berri Library & Information Centre;Kay Ave, Berri  5343;8595 2666;berri.library@tafesa.edu.au;http://www.berrilibrary.info;NULL;NULL;School terms: Mon - Wed, Fri 8am - 6pm, Thurs 8am - 8pm, Sat 9am - 12 noon, School holidays: Mon, Wed, Fri 9am - 5pm, Tues 9am - 6pm, Thurs 9am - 8pm, Sat 9am - 12 noon, After hours returns available;The Berri Barmera Council
138.81023400;-34.45424000;78;Light Regional Public Library Service - Freeling;Hanson St, Freeling  5372;8525 3240;library@light.sa.gov.au;http://www.light.sa.gov.au;NULL;NULL;Mon 3pm - 8pm, Wed 2pm - 6pm, Thurs 2pm - 5pm, Fri 10am - 12 noon;Light Regional Council
138.92700900;-34.45724900;79;Light Regional Public Library Service - Greenock;Kapunda Rd, Greenock  5360;8562 8308;library@light.sa.gov.au;http://www.light.sa.gov.au;NULL;NULL;Tues 7pm - 8pm, Thurs 9.30am - 10.30am, Fri 3pm - 5pm;Light Regional Council
138.91509000;-34.34071100;80;Light Regional Public Library Service - Kapunda;51 - 53 Main St, Kapunda  5373;8525 3290;library@light.sa.gov.au;http://www.light.sa.gov.au;NULL;Co-located with [!4ROG13G5!11], Interpretive Display, Community Art Gallery and Community Craft Shop.;Mon - Wed, Fri 9am - 5pm, Thurs 9am - 8pm, Sat, Sun, public holidays 10am - 4pm, Closed Good Friday & Christmas Day, After hours returns available;Light Regional Council
138.68344800;-34.47040600;81;Wasleys Public Library;45-47 Annie Terrace, Wasleys 5400;NULL; ;http://www.light.sa.gov.au/site/page.cfm?u=218;<Null>;NULL;NULL;Light Regional Council
138.51484000;-34.59402900;82;Two Wells Public Library;61 Old Port Wakefield Rd, Two Wells  5501;8520 2100;NULL;http://www.mallala.sa.gov.au;Windsor Institute, Windsor 5501 Sun 10am - 11am Mallala - Redbanks Rd, Mallala 5502 (behind council office) Wed 10am - 12 noon, Fri 3pm - 5pm;NULL;Tues, Thurs 9.30am - 5pm, Wed 1pm - 7pm, Fri 9.30am - 3pm, Sat 9am - 11am;The Dc Of Mallala
139.04409000;-34.50475600;83;Barossa Council Library Service - Angaston;Washington St, Angaston  5353;8564 2369;library@barossa.sa.gov.au;http://www.barossa.sa.gov.au;NULL;Council Services including information, Payments available.;Mon 2pm - 6pm, Tues 9am - 1pm, Wed - Fri 1pm - 5pm, After hours returns available;The Barossa Council
138.89057200;-34.60247100;84;Barossa Council Library Service - Lyndoch;8 Lyndoch Valley Rd, Lyndoch  5351;8524 4009;library@barossa.sa.gov.au;http://www.barossa.sa.gov.au;NULL;Council Services including information, Payments available.;Mon, Wed - Fri 9am - 12.30pm, 1.30pm - 5pm, Tues 9am - 12.30pm, 1.30pm - 6pm, Sat 9am - 12 noon, After hours returns available;The Barossa Council
139.03129800;-34.78397600;85;Barossa Council Library Service - Mount Pleasant;Melrose St, Mount Pleasant  5235;8568 2407;library@barossa.sa.gov.au;http://www.barossa.sa.gov.au;NULL;Council Services including information, Payments available.;Mon - Wed, Fri 9am - 12.30pm, 1.30pm - 5pm, Thurs 9am - 12.30pm, 1.30pm - 6pm, After hours returns available;The Barossa Council
138.99199600;-34.48164600;86;Barossa Council Library Service - Nuriootpa;43-51 Tanunda Rd, Nuriootpa  5355;8563 8440;library@barossa.sa.gov.au;http://www.barossa.sa.gov.au;NULL;NULL;Mon - Thurs 9am - 6pm, Fri 9am - 5pm, Sat 9am - 12 noon, Sun 12 noon - 3pm, After hours returns available.;The Barossa Council
138.95919700;-34.52528200;87;Barossa Council Library Service - Tanunda;66-68 Murray St, Tanunda  5352;8561 1300;library@barossa.sa.gov.au;http://www.barossa.sa.gov.au;NULL;Public Library Services only - Council payments no longer available.;Mon, Wed - Fri 9am - 5pm, Tues 9am - 6pm, Sat 9am - 12 noon;The Barossa Council
140.21834200;-34.81120400;88;East Murray School Community Library;School Rd, Mindarie  5309;8578 7053;NULL;http://www.libraries.sa.gov.au;NULL;NULL;NULL;The Dc Of Karoonda East Murray
139.89563300;-35.09239300;89;Karoonda School Community Library;1 North Tce, Karoonda  5307;8578 1120;NULL;http://bookmark.central.sa.edu.au/mln.htm;NULL;NULL;NULL;The Dc Of Karoonda East Murray
138.74960500;-34.59928700;90;Gawler Public Library;91 Murray St, Gawler  5118;8522 9213;library@gawler.sa.gov.au;http://www.gawlerlibrary.sa.gov.au;Evanston Gardens - address 65 Angle Vale Rd, Evanston Gardens 5116, Tel. 8522 0123 Hours: Tues 9am - 5pm;NULL;Mon, Wed, Thurs, Fri 9am - 5pm, Tues, Sat 9am - 1pm;Town Of Gawler
138.71991400;-34.62404000;91;Evanstone Gardens Branch Library;63-65 Angle Vale Road, Evanstone Gardens, SA 5116;NULL; ;http://www.gawler.sa.gov.au/page.aspx?u=530;<Null>;NULL;Hours: Tues 9am - 5pm;Town Of Gawler
138.67140700;-34.71768300;92;Playford Library Service - Elizabeth;10 Playford Blvd, Elizabeth  5112;8256 0334;library@playford.sa.gov.au;http://www.playford.sa.gov.au;NULL;NULL;Mon, Wed, Fri 9am - 5pm, Tues 1pm - 5pm, Thurs 9am - 7pm, Sat 10am - 1pm;City Of Playford
138.68959500;-34.68668300;93;Playford Library Service - Munno Para;Shop 51, Munno Para Shopping City, 600 Main North Rd, Smithfield  5114;8254 4600;library@playford.sa.gov.au;http://www.playford.sa.gov.au;NULL;NULL;Mon - Wed 9am - 5pm, Thurs 9am - 8pm, Fri 9am - 7pm, Sat 10am - 4pm, Sun 1pm - 4pm After hours returns available;City Of Playford
138.71771300;-35.00561900;94;Adelaide Hills Library Service - Coventry Library, Stirling;63 Mount Barker Rd, Stirling  5152;8408 0420;library@ahc.sa.gov.au;http://www.ahc.sa.gov.au;NULL;NULL;Tues, Wed, Fri 10am - 6pm, Thurs 1pm - 8pm, Sat 10am - 5pm, Sun 1pm - 5pm After hours returns available;Adelaide Hills Council
138.88631700;-34.82205400;95;Adelaide Hills Library Service - Gumeracha;Civic Centre, Albert Road, Gumeracha  5233;8389 1455;library@ahc.sa.gov.au;http://www.ahc.sa.gov.au;NULL;NULL;Tues 10am - 5pm, Fri 10am - 5pm, Sat 10am - 1pm After hours returns available;Adelaide Hills Council
138.87503000;-34.95398000;96;Adelaide Hills Library Service - Mobile Library;NULL;8408 0420;library@ahc.sa.gov.au;http://www.ahc.sa.gov.au;NULL;NULL;Schedule available via the website, at Adelaide Hills Council Libraries or tel. 8408 0420. The Mobile Library Service will be cancelled on days with a fire danger rating of Catastrophic for the Mount Lofty Ranges;Adelaide Hills Council
138.87587500;-34.95042800;97;Adelaide Hills Library Service - Woodside;26 Onkaparinga Valley Rd, Woodside  5244;8408 0520;library@ahc.sa.gov.au;http://www.ahc.sa.gov.au;NULL;NULL;Mon -  Wed & Fri 9am-5pm Thurs 9am-8pm Sat 10am-2pm After hours returns available;Adelaide Hills Council
135.86608700;-34.72383500;98;Port Lincoln Public Library;2 London St, Port Lincoln  5606;8688 3622;NULL;http://www.portlincoln.sa.gov.au;NULL;A joint-use library managed by TAFE SA Port Lincoln Campus and City of Port Lincoln;Mon, Tues, Thurs, Fri 9am - 5pm, Wed 9am - 7pm, Sun 1pm - 4.30pm After hours returns available;City Of Port Lincoln
138.64216800;-34.83010800;99;Salisbury Library Service - Ingle Farm;Beovich Rd, Ingle Farm  5098;8265 4717;library@salisbury.sa.gov.au;http://www.salisburylibrary.sa.gov.au;NULL;NULL;Mon - Wed, Fri 9.30am - 5.30pm, Thurs 9.30am - 8pm, Sat 9.30am - 3.30pm, Sun 1.30pm - 4.30pm;City Of Salisbury
138.64538400;-34.76283000;100;Salisbury Library Service - Len Beadell Library;55 John St, Salisbury  5108;8406 8283, 8406 8284;library@salisbury.sa.gov.au;http://www.salisburylibrary.sa.gov.au;NULL;NULL;Mon - Wed, Fri 9.30am - 5.30pm Thurs 9.30am - 8pm Sat 9.30am - 3.30pm Sun 1.30pm - 4.30pm After hours returns available;City Of Salisbury
138.61730300;-34.81077100;101;Salisbury Library Service - Mawson Lakes;2-8 Main St, Mawson Lakes  5095;8302 5555;library@salisbury.sa.gov.au;http://www.salisburylibrary.sa.gov.au;NULL;NULL;Mon, Wed, Fri 9.30am - 5pm, Tues, Thurs 9.30am - 7pm, Sat 10am - 4pm, Sun 2pm - 5pm, After hours returns available;City Of Salisbury
138.65267500;-34.81112100;102;Salisbury Library Service - Para Hills;Wilkinson Rd, Para Hills  5096;8264 2512;library@salisbury.sa.gov.au;http://www.salisburylibrary.sa.gov.au;NULL;NULL;Mon, Wed, Fri 9.30am - 5pm, Tues, 9.30am - 2pm, Thurs 2.30pm - 7pm, Sat 10am - 1pm;City Of Salisbury
138.62337600;-34.76955400;103;Salisbury Library Service - Salisbury West;Hollywood Blvd, Salisbury Downs  5108;8258 2788;library@salisbury.sa.gov.au;http://www.salisburylibrary.sa.gov.au;NULL;NULL;Mon - Wed, Fri 9.30am - 5.30pm, Thurs 9.30am - 8pm, Sat 9.30am - 12.30pm;City Of Salisbury
138.69003400;-34.82832000;104;Tea Tree Gully Public Library;571 Montague Rd, Modbury  5092;8397 7333;library@cttg.sa.gov.au;http://www.ttglibrary.sa.gov.au;NULL;NULL;Mon, Wed 10am - 8pm, Tues, Thurs - Sat 10am - 5pm, Sun 1pm - 5pm After hours returns available;City Of Tea Tree Gully
138.60164000;-34.85329000;105;Port Adelaide Enfield Public Library Service - Enfield;1 Kensington Cres, Enfield  5085;8405 6530;libmail@portenf.sa.gov.au;http://www.portenf.sa.gov.au;NULL;NULL;Mon - Wed 9.30am - 5.30pm, Thurs 9.30am - 8pm, Fri 10am - 5.30pm, Sat 9.30am - 1pm, Sun 1.30pm - 5pm;City Of Port Adelaide Enfield
138.63740100;-34.87020500;106;Port Adelaide Enfield Public Library Service - Greenacres;2 Fosters Rd, Greenacres  5086;8405 6540;libmail@portenf.sa.gov.au;http://www.portenf.sa.gov.au;NULL;NULL;Mon - Wed 9.30am - 5.30pm, Thurs 9.30am - 8pm, Fri 10am - 5.30pm, Sat 9.30am - 1pm, Sun 1.30pm - 5pm;City Of Port Adelaide Enfield
138.55814300;-34.85808700;107;Port Adelaide Enfield Public Library Service - Parks;2 - 46 Cowan St, Angle Park  5010;8243 5691;libmail@portenf.sa.gov.au;http://www.portenf.sa.gov.au;NULL;NULL;Mon, Tues, Wed 9.30am - 5.30pm, Thurs 9.30am - 8pm, Fri 10am - 5.30pm, Sat Closed, Sun 1.30pm - 5pm;City Of Port Adelaide Enfield
138.50338900;-34.84738200;108;Port Adelaide Enfield Public Library Service - Port Adelaide;2 - 4 Church St, Port Adelaide  5015;8405 6580;libmail@portenf.sa.gov.au;http://www.portenf.sa.gov.au;NULL;NULL;Mon - Wed 9.30am - 5.30pm, Thurs 9.30am - 8pm, Fri 10am - 5.30pm, Sat 9.30am - 4pm;City Of Port Adelaide Enfield
138.48117600;-34.83881600;109;Port Adelaide Enfield Public Library Service - Semaphore;14 Semaphore Rd, Semaphore  5019;8405 6570;libmail@portenf.sa.gov.au;http://www.portenf.sa.gov.au;NULL;NULL;Mon - Wed 9.30am - 5.30pm, Thurs 9.30am - 8pm, Fri 10am - 5.30pm, Sat 9.30am - 1pm, Sun 1.30pm - 5pm;City Of Port Adelaide Enfield
138.53774600;-34.87872800;110;Charles Sturt Library Service - Civic, Woodville;72 Woodville Rd, Woodville  5011;8408 1333;library@charlessturt.sa.gov.au;http://www.charlessturt.sa.gov.au;NULL;NULL;Mon - Thurs 10am - 5.30pm, Fri 10am - 8pm, Sat 9.15am - 12 noon, Sun 1.30pm - 4.30pm, After hours returns available;City Of Charles Sturt
138.53033300;-34.90481400;111;Charles Sturt Library Service - Findon;Findon Shopping Centre, cnr Findon Rd and Grange Rd, Findon  5023;8408 1333;library@charlessturt.sa.gov.au;http://www.charlessturt.sa.gov.au;NULL;NULL;Mon, Tues, Fri 10am - 5.30pm, Wed 10am - 5.30pm, Thurs 10am - 8pm, Sat 9.15am - 1pm, After hours returns available;City Of Charles Sturt
138.49386300;-34.91688200;112;Charles Sturt Library Service - Henley Beach;378 Seaview Rd, Henley Beach  5022;8408 1333;library@charlessturt.sa.gov.au;http://www.charlessturt.sa.gov.au;NULL;NULL;Tues, Thurs, Fri 10am - 5.30pm, Wed 1pm - 8pm, Sat 9.30am - 12 noon, Sun 1.30pm - 4pm, After hours returns available;City Of Charles Sturt
138.57356800;-34.90574400;113;Charles Sturt Library Service - Hindmarsh;139 Port Rd, Hindmarsh  5007;8408 1333;library@charlessturt.sa.gov.au;http://www.charlessturt.sa.gov.au;NULL;NULL;Mon - Fri 10am - 7pm, Sat 12.30pm - 4.30pm, After hours returns available;City Of Charles Sturt
138.49221000;-34.87682100;114;Charles Sturt Library Service - West Lakes;Cnr Brebner Dr & West Lakes Blvd, West Lakes  5021;8408 1333;library@charlessturt.sa.gov.au;http://www.charlessturt.sa.gov.au;NULL;NULL;Mon - Wed, Fri 8.30am - 5.30pm, Thurs 8.30am - 8pm, Sat 9.15am - 5pm, Sun 1.30pm - 4.30pm, After hours returns available;City Of Charles Sturt
138.67833900;-34.88788400;115;Campbelltown Public Library;171 Montacute Rd, Newton  5074;8366 9299;library@campbelltown.sa.gov.au;www.campbelltown.sa.gov.au;NULL;Bus ticket purchase and public telephone available;Mon 10am-6pm Tues 9.30am - 8pm Wed, Thurs 9.30am - 6pm Fri 9.30am - 8pm Sat 9.30am-2pm Sun 1pm-5pm After hours returns available Closed all public holidays;Campbelltown City Council
138.60296300;-34.88250300;116;Prospect Public Library;Thomas St Centre, Nailsworth  5083;8342 8170;admin@prospect.sa.gov.au;http://www.prospect.sa.gov.au;NULL;NULL;Tues 10.15am - 8.30pm, Wed - Fri 10.15am - 6pm, Sat 9am - 4pm, Sun 2pm - 5pm, Closed Mon. After hours returns available;The City Of Prospect
138.61476800;-34.89787100;117;Walkerville Library;62 Walkerville Tce, Gilberton  5081;8342 7150;NULL;http://www.walkerville.sa.gov.au;NULL;NULL;Mon, Tues, Thurs, Fri 9am - 5pm, Wed 9am - 8pm, Sat 9.15am - 12 noon, Sun 2.30pm - 5pm;The Corporation Of The Town Of Walkerville
138.63167700;-34.92167900;118;Norwood Public Library;110 The Parade, Norwood  5067;8366 4546;townhall@npsp.sa.gov.au;www.npsp.sa.gov.au/site/page.cfm?u=241;NULL;NULL;Tues, Wed 1pm - 5.30pm, Thurs 1pm - 9pm, Fri 9.30am - 5.30pm, Sat 9am - 12 noon, Sun 2pm - 5pm, After hours returns available Mon - Fri 9am - 5pm;The City Of Norwood Payneham And St Peters
138.64266000;-34.89135400;119;Payneham Public Library;2 Turner St, Felixstow  5070;8336 0333;townhall@npsp.sa.gov.au;http://www.npsp.sa.gov.au;NULL;NULL;Mon, Thurs 10am - 8pm, Wed, Fri 10am - 6pm, Sat 9am -12 noon, After hours returns available;The City Of Norwood Payneham And St Peters
138.62679600;-34.91084300;120;St Peters Public Library;101 Payneham Rd, St Peters  5069;8334 0200;townhall@npsp.sa.gov.au;www.npsp.sa.gov.au/site/page.cfm?u=241;NULL;NULL;Mon, Thurs, Fri 10.30am - 6pm, Tues 10.30am - 9pm, Sat 9.30am - 12 noon, Sun 2pm - 5pm After hours returns at rear of library;The City Of Norwood Payneham And St Peters
138.85472200;-35.06967600;121;Mount Barker Community Library;5 Dumas St, Mount Barker  5251;8391 7312;library@dcmtbarker.sa.gov.au;http://www.dcmtbarker.sa.gov.au;NULL;NULL;Mon 9am - 7pm, Tues, Wed, Fri 9am - 5pm, Thurs 9am - 8pm, Sat 9am - 4pm, Toy library: Tues, Wed, Fri 11am - 12.30pm, Thurs 11am - 12.30pm, 3pm - 4.30pm, 6pm - 8pm;The Dc Of Mount Barker
138.59839800;-34.92840700;122;Adelaide City Council Library Service - Grote Street;18 Grote St, Adelaide  5000;8203 7990;library@adelaidecitycouncil.com;http://www.adelaidecitycouncil.com/library;NULL;NULL;Mon - Thurs 10am - 6pm, Fri 10am - 8pm, Sat 11am - 3pm After hours returns available;Adelaide City Council
138.61201900;-34.93348400;123;Adelaide City Council Library Service - Hutt Street;235 Hutt St, Adelaide  5000;8203 7990;library@adelaidecitycouncil.com;http://www.adelaidecitycouncil.com/library;NULL;NULL;Mon - Wed, Fri 10am - 6pm, Thurs 10am - 8pm, Sat 11am - 2pm After hours returns available;Adelaide City Council
138.59376200;-34.90600300;124;Adelaide City Council Library Service - North Adelaide;176 Tynte St, North Adelaide  5006;8203 7990;library@adelaidecitycouncil.com;http://www.adelaidecitycouncil.com/library;NULL;NULL;Mon - Wed, Fri 10am - 6pm, Thurs 10am - 8pm, Sat 11am - 2pm After hours returns available;Adelaide City Council
138.59913700;-34.92156800;125;Adelaide City Council Library Service - North Terrace;Corner of North Tce & Kintore Ave, Adelaide  5000;8203 7990;library@adelaidecitycouncil.com;http://www.adelaidecitycouncil.com/library;NULL;NULL;Mon - Fri 10am - 6pm, Sat, Sun 12 noon - 5pm After hours returns available in Kintore Avenue;Adelaide City Council
138.56192000;-34.93396200;126;West Torrens Library Service;1 Brooker Tce, Hilton  5033;8416 6228;library@wtcc.sa.gov.au;http://www.westtorrens.sa.gov.au/Library;NULL;NULL;Mon, Tues, Fri 10am - 6pm Wed 8am - 6pm Thurs 10am - 8pm Sat 10am - 4pm Sun 1pm - 4pm;City Of West Torrens
138.56192000;-34.93396200;127;West Torrens Library Service - Mobile Library;1 Brooker Tce, Hilton  5033;8416 6228;library@wtcc.sa.gov.au;http://www.westtorrens.sa.gov.au/Library;NULL;Visits the suburbs of Brooklyn Park, Camden Park, Fulham, Glandore, Glenelg North, Keswick, Kurralta Park, Lockleys, Marleston, Netley, North Plympton, Novar Gardens, Plympton, Torrensville and West Beach;Mon, Wed - Sat. Closed Tues;City Of West Torrens
138.64316800;-34.93843400;128;Burnside Library & Information Service;401 Greenhill Rd, Tusmore  5065;8366 4280;library@burnside.sa.gov.au;http://www.burnside.sa.gov.au;NULL;NULL;Mon - Wed, Fri 9.30am - 6pm, Thurs 9.30am - 9pm, Sat 10am - 4pm, Sun 2pm - 5pm After hours returns at rear of library in Hyde Street;City Of Burnside
138.63556700;-34.94711600;129;Burnside Library - Toy Library;Middle of Glenunga Reserve L'Estrange Street GLENUNGA  SA  5064;(08) 8338 4131;hwright@burnside.sa.gov.au;http://www.burnside.sa.gov.au/goto/Toylibrary;NULL;NULL;NULL;City Of Burnside
139.27867000;-35.11861500;130;Murray Bridge Public Library;Level 2, Murray Bridge Market Place, Murray Bridge  5253;8539 1175;library@rcmb.sa.gov.au;http://library.rcmb.sa.gov.au;NULL;Mother's room available with lounge, baby change table and hand washing facilities;Mon - Thurs 9.30am - 6pm, Fri 9.30am - 8pm, Sat 9.30am - 1pm;The Rural City Of Murray Bridge
138.62508800;-34.95772100;131;Unley Library Service;181 Unley Rd, Unley  5061;8372 5100. Toy library: 8372 5174;pobox1@unley.sa.gov.au;http://www.unley.sa.gov.au;NULL;NULL;Mon 1pm - 6pm, Tues, Wed, Fri 10am - 6pm, Thurs 10am - 8pm, Sat 10am - 4pm, Sun 2pm - 5pm, After hours returns available, Also see Goodwood and Fullarton Park branches;City Of Unley
138.58979800;-34.95080100;132;Unley Library Service - Fullarton Park;411 Fullarton Rd, Fullarton Park  5063;8372 5167;pobox1@unley.sa.gov.au;http://www.unley.sa.gov.au;NULL;NULL;Mon 11am - 1pm, Tues 12.30pm - 3pm, Thurs 10am - 1pm;City Of Unley
138.60782200;-34.95076300;133;Unley Library Service - Goodwood;101 Goodwood Rd, Goodwood  5034;8372 5166;pobox1@unley.sa.gov.au;http://www.unley.sa.gov.au;NULL;NULL;Mon 10.30am - 5pm, Tues 10am - 6pm, Wed 1pm - 5pm, Thurs 10am - 6pm, Fri 10am - 5pm, Sat 10am - 1pm, After hours returns available;City Of Unley
138.54329800;-35.01362900;134;Marion Library Service - Cultural Centre Library;Marion Cultural Centre 287 Diagonal Road, Oaklands Park  5046;8375 6785;marionlibrary@marion.sa.gov.au;http://www.marion.sa.gov.au;NULL;NULL;Mon, Tues, Thurs, Fri 10am - 8pm, Wed 10am - 6pm, Sat 10am - 4pm, Sun 1pm - 4pm;City Of Marion
138.51615600;-35.07679600;135;Marion Library Service - Hallett Cove;1 Zwerner Dr, Hallett Cove  5158;8375 6755;marionlibrary@marion.sa.gov.au;http://www.marion.sa.gov.au;NULL;NULL;Tues, Wed, Fri 10am - 5pm, Thurs 10am - 8pm, Sat 10am - 4pm, Sun 1pm - 4pm;City Of Marion
138.55549200;-34.99180800;136;Marion Library Service - Park Holme;Duncan Ave, Park Holme  5043;8375 6745;marionlibrary@marion.sa.gov.au;http://www.marion.sa.gov.au;NULL;NULL;Mon, Tues, Thurs, Fri 10am - 5pm, Wed 10am - 8pm, Sat 10am - 4pm;City Of Marion
138.52009200;-35.01675900;137;Holdfast Bay Library Service - Brighton;20 Jetty Rd, Brighton  5048;8229 9988;blibrary@holdfast.sa.gov.au;http://www.holdfast.sa.gov.au/libraries;NULL;NULL;Mon, Thurs, Fri 9am - 5pm, Tues 9am - 7pm, Sat 9am - 1pm After hours returns available;City Of Holdfast Bay
138.51208600;-34.97977000;138;Holdfast Bay Library Service - Glenelg;2 Colley Tce, Glenelg  5045;8295 2580;glibrary@holdfast.sa.gov.au;http://www.holdfast.sa.gov.au/libraries;NULL;NULL;Mon, Tues, Thurs, Fri 9am - 5pm, Wed 9am - 7pm, Sat 9am - 1pm, Sun 1pm - 4pm After hours returns available;City Of Holdfast Bay
138.61677400;-35.01804100;139;Blackwood Library;215 Main Rd, Blackwood  5051;NULL;library@mitchamcouncil.sa.gov.au;http://www.mitchamcouncil.sa.gov.au;NULL;Library Community Bus provides monthly service on Mondays to Mitcham and Blackwood Libraries.;Mon - Wed 10am - 5.30pm, Thurs 10am - 8pm, Fri 10am - 2pm, Sat 10am - 4pm, Sun 2pm - 5pm Closed public holidays, Blackwood Library closed on all Extreme and Catastrophic Fire Danger Days declared in the Mount Lofty Ranges Fire Ban District;City Of Mitcham
138.60871200;-34.97288300;140;Mitcham Library;154 Belair Rd, Hawthorn  5062;8372 8244;library@mitchamcouncil.sa.gov.au;http://www.mitchamcouncil.sa.gov.au;NULL;Library Community Bus provides monthly service on Mondays to Mitcham and Blackwood Libraries;Mon, Tues, Thurs 10am - 5.30pm, Wed 10am - 8pm, Fri 10am - 2pm, Sat 10am - 4pm, Sun 2pm - 5pm Closed public holidays After hours returns available;City Of Mitcham
140.52092900;-35.33119300;141;Lameroo School Community Library;1 Bews Tce, Lameroo  5302;8576 3490;lameroo.library@plain.sa.gov.au;http://bookmark.central.sa.edu.au/mln.htm;NULL;NULL;School terms: Mon 9am - 4pm, Tues - Fri 9am - 6pm School holidays: Tues, Wed, Fri 11.30am - 6pm, Thurs 10am - 1pm;Southern Mallee Dc
140.90513100;-35.25747100;142;Pinnaroo School Community Library;Bundey Tce, Pinnaroo  5304;8577 8176;blacksell.tiffany@plain.sa.gov.au;http://www.libraries.sa.gov.au;NULL;NULL;School terms: Mon 9am - 4pm, Tues 10am - 3.30pm, Wed 9am - 4pm, Thurs, Fri 9am - 7pm, School holidays: Tues 10am - 3.30pm, Wed 10am - 4pm, Thurs, Fri 10.30am - 7pm, After hours returns available;Southern Mallee Dc
138.45771700;-35.27865900;143;Onkaparinga Library Service - Aldinga;Aldinga Central Shopping Centre, Aldinga Beach  5173;8384 0022;libraries@onkaparinga.sa.gov.au;http://www.onkaparingacity.com/libraries;NULL;NULL;Mon - Wed, Fri 10am - 5pm, Thurs 10am - 8pm, Sat 9am - 12 noon, after hours returns chute available;City Of Onkaparinga
138.59590700;-35.07594100;144;Onkaparinga Library Service - Hub Library;Hub Dr, Aberfoyle Park  5159;8384 0100;libraries@onkaparinga.sa.gov.au;www.onkaparingacity.com/libraries;NULL;Joint use library.;Mon, Tues, Fri 9.30am - 6pm, Wed, Thurs 9.30am - 8pm, Sat 10am - 3pm, Sun 2pm - 5pm,  after hours returns chute available;City Of Onkaparinga
138.49515300;-35.13928500;145;Onkaparinga Library Service - Noarlunga;Hannah Rd, Noarlunga Centre  5168;8384 0655;libraries@onkaparinga.sa.gov.au;www.onkaparingacity.com/libraries;NULL;NULL;Mon - Thurs 10am - 8pm, Fri 10am - 5pm, Sat 10am - 4pm;City Of Onkaparinga
138.48111900;-35.18694900;146;Onkaparinga Library Service - Seaford;Grand Blvd, Seaford  5169;8384 0044;libraries@onkaparinga.sa.gov.au;www.onkaparingacity.com/libraries;NULL;Joint use library. ;Mon - Wed, Fri 9am - 5pm, Thurs 12 noon - 8pm, Sat 9am - 12 noon, after hours returns chute available;City Of Onkaparinga
138.55710600;-35.27343000;147;Onkaparinga Library Service - Willunga;St Peter's Tce, Willunga  5172;8384 0006;libraries@onkaparinga.sa.gov.au;http://www.onkaparingacity.com/libraries;NULL;Joint use with Council Customer Service office.;Mon - Wed, Fri 8.30am - 5pm, Thurs 8.30am - 6pm, Sun 2pm - 5pm, after hours returns chute available;City Of Onkaparinga
138.54584400;-35.11347900;148;Onkaparinga Library Service - Woodcroft;Woodcroft Community Centre, Morphett Vale  5162;8384 0050;libraries@onkaparinga.sa.gov.au;www.onkaparingacity.com/libraries;NULL;NULL;Mon - Wed and Fri 10am - 5.30pm, Thurs 10am - 8pm and Sun 1pm - 4pm, after hours chute available;City Of Onkaparinga
138.78224300;-35.50185700;149;Alexandrina Library Service - Goolwa;11 Cadell St, Goolwa  5214;8555 7000;glibrary@alexandrina.sa.gov.au;http://www.alexandrina.sa.gov.au;NULL;NULL;Mon - Fri 9am - 5pm, Sat 9am - 12 noon After hours returns available;Alexandrina Council
138.96955900;-35.40721400;150;Alexandrina Library Service - Milang Depot;Institute Bldg, Coxe St, Milang  5256;8555 7000;glibrary@alexandrina.sa.gov.au;http://www.alexandrina.sa.gov.au;NULL;NULL;Mon 3pm - 5pm, Fri 9.30am - 12 noon Open Wed 10am - 12 noon when a public holiday occurs on Mon or Fri After hours returns available;Alexandrina Council
138.61978800;-35.34879300;151;Alexandrina Library Service - Mount Compass Depot;Mount Compass Area School, School Rd, Mount Compass  5210;8555 7000;glibrary@alexandrina.sa.gov.au;http://www.alexandrina.sa.gov.au;NULL;NULL;School terms: Mon - Fri 8.45am - 4.15pm School holidays: Wed 10am - 12 noon After hours returns available;Alexandrina Council
138.68195200;-35.53283700;152;Alexandrina Library Service - Port Elliot Depot;16 The Strand, Port Elliot  5212;8555 7000;glibrary@alexandrina.sa.gov.au;http://www.alexandrina.sa.gov.au;NULL;NULL;Wed 2pm - 4.30pm, Sat 9.30am - 12 noon After hours returns available;Alexandrina Council
138.90115800;-35.25756400;153;Strathalbyn School Community Library;1 Colman Tce, Strathalbyn  5255;8555 7000;glibrary@alexandrina.sa.gov.au;http://www.alexandrina.sa.gov.au;NULL;NULL;Mon - Fri 9am - 5pm,  Sat 9am - 12 noon;Alexandrina Council
139.67280900;-35.46479500;154;Coomandook School Community Library;Dukes Hwy, Coomandook  5261;8573 3196;coomandook.library@plain.sa.gov.au;http://www.coomyas.sa.edu.au/library;NULL;NULL;School terms: Mon - Thurs 8.30am - 4.15pm, Fri 8.30am - 4pm School holidays: Tues - Thurs 9.30am - 4.30pm;Coorong Dc
139.34093800;-35.68405600;155;Meningie School Community Library;1 North Tce, Meningie  5264;8575 1106;NULL;http://www.libraries.sa.gov.au;NULL;NULL;School terms: Mon 9am - 4.30pm, Tues - Fri 9am - 5.30pm, Sat 10am - 1pm School holidays: Tues - Fri 10.30am - 1pm, 2pm - 5pm, Sat 10am - 1pm;Coorong Dc
139.45561300;-35.25627700;156;Tailem Bend School Community Library;1 Murray St, Tailem Bend  5260;8572 3266;library@tailembdps.sa.edu.au;http://www.libraries.sa.gov.au;NULL;NULL;School terms: Mon, Wed, Fri 9am-5pm Tue, Thur 9am-4pm School holidays: Mon, Wed, Fri 9am-12pm, 2pm -5pm, Tue, Thurs closed ;Coorong Dc
140.05724300;-35.88156900;157;Tintinara Coonalpyn Community Library;Wendt Tce, Tintinara  5266;8757 2120;lawless.wendy@plain.sa.gov.au;http://www.libraries.sa.gov.au;NULL;NULL;School terms: Mon - Fri 8.30am - 5pm School holidays: Wed - Fri 8.30am - 5pm, closed 1pm - 1.30pm;Coorong Dc
138.35483400;-35.45588600;158;Yankalilla School Community Library;207 Main Rd, Yankalilla  5203;8558 2043;yankalilla.library@plain.sa.gov.au;http://www.libraries.sa.gov.au;NULL;NULL;School terms: Mon, Tues 8.30am - 4pm, Wed - Fri 8.30am - 5pm, Sat 10am - 4pm, School holidays: Tues - Fri 10am - 4pm, Sat 10am - 4pm, After hours returns available;The Dc Of Yankalilla
138.61177100;-35.55731900;159;Victor Harbor Public Library;1 Bay Rd, Victor Harbor  5211;8551 0730;library@victor.sa.gov.au;http://www.victor.sa.gov.au;NULL;NULL;Mon, Tues, Thurs, Fri 9.30am - 5.30pm, Wed 10am - 6pm, Sat 9am - 12 noon;City Of Victor Harbor
137.63813900;-35.65683700;160;Kangaroo Island Library Service;Dauncey St, Kingscote  5223;8553 4516;library@kicouncil.sa.gov.au;http://www.kangarooisland.sa.gov.au;Penneshaw Annex - Penneshaw Campus of KICE, Hogg Bay Rd, Penneshaw 5220 Tel. 8553 1067;NULL;Mon - Fri 9am - 5pm, Sat 9am - 12 noon Penneshaw: Tues, Thurs 10am - 12 noon, Wed 12 noon - 2pm;Kangaroo Island Council
137.93227700;-35.72010200;161;Kangaroo Island Library - Penneshaw Annex;Penneshaw Campus of KICE, Hogg Bay Rd, Penneshaw 5220;08 8553 1067;library@kicouncil.sa.gov.au;http://www.kangarooisland.sa.gov.au/goto/library;NULL;NULL;NULL;Kangaroo Island Council
140.77358800;-36.31090700;162;Bordertown Public Library;55 Woolshed St, Bordertown  5268;8752 1473;NULL;http://www.tatiara.sa.gov.au;NULL;NULL;Mon 9.30am - 5.30pm, Tues 9.30am - 5.30pm, Wed 9.30am - 6pm, Thurs 9.30am - 6pm, Fri 9.30am - 5.30pm, Sat 9.30am - 11.30am;Tatiara Dc
140.35312800;-36.09942600;163;Keith School Community Library;Tolmer Tce, Keith  5267;8755 3236;library@keithas.sa.edu.au;http://www.libraries.sa.gov.au;NULL;NULL;School terms: Mon 8.30am - 3.15pm, Tues - Fri 8.30am - 4.30pm, Sat 9.30am - 12 noon School holidays: Tues - Fri 9.30am - 12.30pm, 1.30pm - 4.30pm, Sat 9.30am - 12 noon;Tatiara Dc
139.85566500;-36.83741700;164;Kingston School Community Library;46 East Tce, Kingston  5275;8767 2677;library@wattlerange.sa.gov.au;http://www.kingstonlibrary.com.au;NULL;NULL;School terms: Mon, Wed, Fri 9am - 5pm, Tues, Thurs 9am - 6pm, Sat 9.30am - 12.30pm School holidays: Wed, Fri 9.30am - 1pm, 2pm - 5pm, Tues, Thurs 9.30am - 1pm, 2pm - 6pm, Sat 9.30am - 12.30pm;Kingston Dc
140.36966300;-36.97123900;165;Lucindale School Community Library;Gum Ave, Lucindale  5272;8766 2084;NULL;http://www.libraries.sa.gov.au;NULL;NULL;School terms: Mon, Tues, Fri 9am - 4pm, Wed, Thurs 9am - 5pm, Sat 9am - 11.30am School holidays: Tues 9am - 12 noon & 1pm - 4pm, Thurs 9am - 12.30pm & 1pm - 5pm, Fri 9am - 12 noon & 1pm - 3.30pm, Sat 9am - 11.30am;Naracoorte Lucindale Council
140.74142100;-36.95621500;166;Naracoorte Public Library;De Garis Pl, Naracoorte  5271;8762 2338;NULL;http://www.naracoortelucindale.sa.gov.au/site/page.cfm?u=108;NULL;NULL;Mon - Wed, Fri 8.30am - 5.30pm, Thurs 8.30am - 8pm, Sat 8.30am - 12 noon;Naracoorte Lucindale Council
139.75479700;-37.16247000;167;Robe Public Library;Mundy Tce, Robe  5276;8768 2465;robelibrary@plain.sa.gov.au;http://www.council.robe.sa.gov.au;NULL;Co-located with Robe Visitor Information Centre;Mon - Fri 9am - 5pm Sat, Sun 10am - 4pm Public holidays 10am - 1pm;Dc Of Robe
140.34628600;-37.59434600;168;Millicent Public Library;Ridge Tce, Millicent  5280;8733 0903;library@wattlerange.sa.gov.au;http://www.wattlerange.sa.gov.au;Kalangadoo - Kalangadoo Primary School, Millicent Rd, Kalangadoo 5278 Hours: Tues 3pm - 5pm, Sat 9.30am - 11.30am Nangwarry - Nangwarry Primary School, Whitford Cres, Nangwarry 5277 Hours: Wed, Fri 10am - 12 noon;NULL;Tues, Fri 9am - 5.30pm, 6.30pm - 8.30pm, Wed, Thurs 9am - 5.30pm, Sat 9am - 12 noon;Wattle Range Council
140.84388000;-37.37369200;169;Penola School Community Library;43 Cameron St, Penola  5277;8737 2838;NULL;http://www.wattlerange.sa.gov.au;NULL;NULL;School terms: Mon, Wed - Fri 8.30am - 4pm, Tues 8.30am - 7pm, Sat 9.30am - 12 noon Closed for lunch 1pm - 2pm, closed on public holidays School holidays: Tues 10am - 8pm, Wed - Fri 9am - 4pm, Sat 9.30am - 12 noon;Wattle Range Council
140.78084400;-37.82958100;170;Mount Gambier Public Library;6 Watson Tce, Mount Gambier  5290;8721 2540;publiclibrary@mountgambier.sa.gov.au;http://www.mountgambier.sa.gov.au/library;NULL;NULL;Mon - Fri 9am - 6pm, Sat, Sun 10am - 4pm;City Of Mount Gambier
137.16354700;-30.44986500;171;Andamooka School Community Library;Government Rd, Andamooka  5722;8672 7113;NULL;http://www.libraries.sa.gov.au;NULL;NULL;NULL;NULL
138.40128400;-30.59234900;172;Leigh Creek School Community Library;Blackoak Dr, Leigh Creek  5731;8675 2803;NULL;http://www.libraries.sa.gov.au;NULL;NULL;School terms: Mon 8.30am - 4pm, Tues, Fri 8.30am - 4.30pm, 7pm - 9pm, Wed, Thurs 8.30am - 4.30pm, Sat 9am - 12 noon School holidays: Tues 12 noon - 4.30pm & 7pm - 9pm, Wed 9am - 1pm, Thurs 12 noon - 4.30pm, Fri 12 noon - 4.30pm & 7pm - 9pm, Sat 9am - 12pm;NULL
136.82547100;-31.19946000;173;Woomera Community Library;Woomera Area School, Dewrang Ave, Woomera  5720;8673 7287;community.library@woomera.sa.edu.au;http://www.woomera.sa.edu.au;NULL;NULL;School terms: Mon 12.30pm - 5.30pm, 7pm - 9pm, Tues, Wed 12.30pm - 5.30pm, Thurs, Fri 12.30pm - 4.30pm School holidays: Mon 12.30pm - 4.30pm, 7pm - 9pm, Tues - Fri 12.30pm - 4.30pm;NULL
138.54277231;-34.27169359;174;Owen Community Library;Fourth St, Owen;8528 6116;NULL;http://www.wakefieldrc.sa.gov.au;Located at Owen Primary;NULL;Contact Council;Wakefield Regional Council
